{"type": "FeatureCollection", "features": [ {"type": "Feature", "properties": {"norad_id": 42969, "name": "SENTINEL-5P", "group": "resource", "lat": -76.95718827830416, "lon": -41.84666415078233, "alt_km": 834.96415588125, "timestamp": "2025-12-03T15:48:02.759171+00:00", "meta": {"OBJECT_NAME": "SENTINEL-5P", "OBJECT_ID": "2017-064A", "EPOCH": "2025-12-03T07:43:13.177056", "MEAN_MOTION": 14.19513578, "ECCENTRICITY": 9.461e-05, "INCLINATION": 98.777, "RA_OF_ASC_NODE": 275.99, "ARG_OF_PERICENTER": 85.8373, "MEAN_ANOMALY": 274.2911, "EPHEMERIS_TYPE": 0, "CLASSIFICATION_TYPE": "U", "NORAD_CAT_ID": 42969, "ELEMENT_SET_NO": 999, "REV_AT_EPOCH": 42177, "BSTAR": 8.3328865e-05, "MEAN_MOTION_DOT": 1.31e-06, "MEAN_MOTION_DDOT": 0}, "tle": {"line1": "1 42969U 17064A   25337.32168029  .00000131  00000+0  83329-4 0  9992", "line2": "2 42969  98.7770 275.9900 0000946  85.8373 274.2911 14.19513578421776"}}, "geometry": {"type": "Point", "coordinates": [-41.84666415078233, -76.95718827830416]}}, {"type": "Feature", "properties": {"norad_id": 42987, "name": "SKYSAT-C11", "group": "resource", "lat": -7.272244510960748, "lon": -66.0224247243657, "alt_km": 429.78618956515766, "timestamp": "2025-12-03T15:48:02.759180+00:00", "meta": {"OBJECT_NAME": "SKYSAT-C11", "OBJECT_ID": "2017-068A", "EPOCH": "2025-12-03T08:47:01.690656", "MEAN_MOTION": 15.46841256, "ECCENTRICITY": 9.219e-05, "INCLINATION": 97.4135, "RA_OF_ASC_NODE": 114.6304, "ARG_OF_PERICENTER": 113.1127, "MEAN_ANOMALY": 247.022, "EPHEMERIS_TYPE": 0, "CLASSIFICATION_TYPE": "U", "NORAD_CAT_ID": 42987, "ELEMENT_SET_NO": 999, "REV_AT_EPOCH": 45286, "BSTAR": 0.0005654664, "MEAN_MOTION_DOT": 0.00028363, "MEAN_MOTION_DDOT": 0}, "tle": {"line1": "1 42987U 17068A   25337.36599179  .00028363  00000+0  56547-3 0  9992", "line2": "2 42987  97.4135 114.6304 0000921 113.1127 247.0220 15.46841256452862"}}, "geometry": {"type": "Point", "coordinates": [-66.0224247243657, -7.272244510960748]}}, {"type": "Feature", "properties": {"norad_id": 42988, "name": "SKYSAT-C10", "group": "resource", "lat": 44.52533541594423, "lon": 101.11632753662728, "alt_km": 465.10414497662896, "timestamp": "2025-12-03T15:48:02.759189+00:00", "meta": {"OBJECT_NAME": "SKYSAT-C10", "OBJECT_ID": "2017-068B", "EPOCH": "2025-12-02T22:21:40.538016", "MEAN_MOTION": 15.31972305, "ECCENTRICITY": 0.00054851, "INCLINATION": 97.4254, "RA_OF_ASC_NODE": 107.758, "ARG_OF_PERICENTER": 121.5944, "MEAN_ANOMALY": 238.5834, "EPHEMERIS_TYPE": 0, "CLASSIFICATION_TYPE": "U", "NORAD_CAT_ID": 42988, "ELEMENT_SET_NO": 999, "REV_AT_EPOCH": 45229, "BSTAR": 0.00048523918, "MEAN_MOTION_DOT": 0.0001492, "MEAN_MOTION_DDOT": 0}, "tle": {"line1": "1 42988U 17068B   25336.93171919  .00014920  00000+0  48524-3 0  9993", "line2": "2 42988  97.4254 107.7580 0005485 121.5944 238.5834 15.31972305452291"}}, "geometry": {"type": "Point", "coordinates": [101.11632753662728, 44.52533541594423]}}, {"type": "Feature", "properties": {"norad_id": 42989, "name": "SKYSAT-C9", "group": "resource", "lat": 55.41578446323255, "lon": -61.26342547302227, "alt_km": 446.44725647272844, "timestamp": "2025-12-03T15:48:02.759198+00:00", "meta": {"OBJECT_NAME": "SKYSAT-C9", "OBJECT_ID": "2017-068C", "EPOCH": "2025-12-03T07:26:41.093376", "MEAN_MOTION": 15.35663642, "ECCENTRICITY": 0.00106559, "INCLINATION": 97.4181, "RA_OF_ASC_NODE": 107.4928, "ARG_OF_PERICENTER": 118.4676, "MEAN_ANOMALY": 241.7642, "EPHEMERIS_TYPE": 0, "CLASSIFICATION_TYPE": "U", "NORAD_CAT_ID": 42989, "ELEMENT_SET_NO": 999, "REV_AT_EPOCH": 45263, "BSTAR": 0.00051581851, "MEAN_MOTION_DOT": 0.00017859, "MEAN_MOTION_DDOT": 0}, "tle": {"line1": "1 42989U 17068C   25337.31019784  .00017859  00000+0  51582-3 0  9990", "line2": "2 42989  97.4181 107.4928 0010655 118.4676 241.7642 15.35663642452632"}}, "geometry": {"type": "Point", "coordinates": [-61.26342547302227, 55.41578446323255]}}, {"type": "Feature", "properties": {"norad_id": 42990, "name": "SKYSAT-C8", "group": "resource", "lat": -15.967616323053802, "lon": -74.51773197702155, "alt_km": 474.4420541196432, "timestamp": "2025-12-03T15:48:02.759207+00:00", "meta": {"OBJECT_NAME": "SKYSAT-C8", "OBJECT_ID": "2017-068D", "EPOCH": "2025-12-03T08:40:49.286784", "MEAN_MOTION": 15.32591193, "ECCENTRICITY": 0.00021385, "INCLINATION": 97.4276, "RA_OF_ASC_NODE": 107.3238, "ARG_OF_PERICENTER": 20.8158, "MEAN_ANOMALY": 339.317, "EPHEMERIS_TYPE": 0, "CLASSIFICATION_TYPE": "U", "NORAD_CAT_ID": 42990, "ELEMENT_SET_NO": 999, "REV_AT_EPOCH": 45227, "BSTAR": 0.00048010148, "MEAN_MOTION_DOT": 0.00015045, "MEAN_MOTION_DDOT": 0}, "tle": {"line1": "1 42990U 17068D   25337.36168156  .00015045  00000+0  48010-3 0  9992", "line2": "2 42990  97.4276 107.3238 0002138  20.8158 339.3170 15.32591193452278"}}, "geometry": {"type": "Point", "coordinates": [-74.51773197702155, -15.967616323053802]}}, {"type": "Feature", "properties": {"norad_id": 42991, "name": "SKYSAT-C7", "group": "resource", "lat": 69.36876577403778, "lon": 88.39473133915807, "alt_km": 457.8919107493466, "timestamp": "2025-12-03T15:48:02.759215+00:00", "meta": {"OBJECT_NAME": "SKYSAT-C7", "OBJECT_ID": "2017-068E", "EPOCH": "2025-12-03T02:57:10.325088", "MEAN_MOTION": 15.31993019, "ECCENTRICITY": 0.00078615, "INCLINATION": 97.4281, "RA_OF_ASC_NODE": 108.1332, "ARG_OF_PERICENTER": 87.0209, "MEAN_ANOMALY": 273.1932, "EPHEMERIS_TYPE": 0, "CLASSIFICATION_TYPE": "U", "NORAD_CAT_ID": 42991, "ELEMENT_SET_NO": 999, "REV_AT_EPOCH": 45230, "BSTAR": 0.00051571811, "MEAN_MOTION_DOT": 0.00015882, "MEAN_MOTION_DDOT": 0}, "tle": {"line1": "1 42991U 17068E   25337.12303617  .00015882  00000+0  51572-3 0  9996", "line2": "2 42991  97.4281 108.1332 0007861  87.0209 273.1932 15.31993019452306"}}, "geometry": {"type": "Point", "coordinates": [88.39473133915807, 69.36876577403778]}}, {"type": "Feature", "properties": {"norad_id": 42992, "name": "SKYSAT-C6", "group": "resource", "lat": -34.59960678493918, "lon": -76.05030045018582, "alt_km": 479.601625117758, "timestamp": "2025-12-03T15:48:02.759224+00:00", "meta": {"OBJECT_NAME": "SKYSAT-C6", "OBJECT_ID": "2017-068F", "EPOCH": "2025-12-03T08:35:31.690752", "MEAN_MOTION": 15.31177883, "ECCENTRICITY": 0.00051465, "INCLINATION": 97.4315, "RA_OF_ASC_NODE": 108.8149, "ARG_OF_PERICENTER": 109.2046, "MEAN_ANOMALY": 250.9752, "EPHEMERIS_TYPE": 0, "CLASSIFICATION_TYPE": "U", "NORAD_CAT_ID": 42992, "ELEMENT_SET_NO": 999, "REV_AT_EPOCH": 45232, "BSTAR": 0.0004677697, "MEAN_MOTION_DOT": 0.00014026, "MEAN_MOTION_DDOT": 0}, "tle": {"line1": "1 42992U 17068F   25337.35800568  .00014026  00000+0  46777-3 0  9999", "line2": "2 42992  97.4315 108.8149 0005146 109.2046 250.9752 15.31177883452326"}}, "geometry": {"type": "Point", "coordinates": [-76.05030045018582, -34.59960678493918]}}, {"type": "Feature", "properties": {"norad_id": 43111, "name": "CARTOSAT-2F", "group": "resource", "lat": -3.238439053182905, "lon": 35.86585898798523, "alt_km": 512.0376208420912, "timestamp": "2025-12-03T15:48:02.759233+00:00", "meta": {"OBJECT_NAME": "CARTOSAT-2F", "OBJECT_ID": "2018-004A", "EPOCH": "2025-12-03T07:54:43.006752", "MEAN_MOTION": 15.19349192, "ECCENTRICITY": 0.00010952, "INCLINATION": 97.4331, "RA_OF_ASC_NODE": 35.1191, "ARG_OF_PERICENTER": 191.5703, "MEAN_ANOMALY": 168.5506, "EPHEMERIS_TYPE": 0, "CLASSIFICATION_TYPE": "U", "NORAD_CAT_ID": 43111, "ELEMENT_SET_NO": 999, "REV_AT_EPOCH": 43759, "BSTAR": 7.2819746e-05, "MEAN_MOTION_DOT": 1.471e-05, "MEAN_MOTION_DDOT": 0}, "tle": {"line1": "1 43111U 18004A   25337.32966443  .00001471  00000+0  72820-4 0  9995", "line2": "2 43111  97.4331  35.1191 0001095 191.5703 168.5506 15.19349192437593"}}, "geometry": {"type": "Point", "coordinates": [35.86585898798523, -3.238439053182905]}}, {"type": "Feature", "properties": {"norad_id": 43259, "name": "GAOFEN-1 02", "group": "resource", "lat": 76.18692795458085, "lon": 0.13775871605063766, "alt_km": 634.2568080986575, "timestamp": "2025-12-03T15:48:02.759242+00:00", "meta": {"OBJECT_NAME": "GAOFEN-1 02", "OBJECT_ID": "2018-031A", "EPOCH": "2025-12-03T07:18:45.945216", "MEAN_MOTION": 14.76447996, "ECCENTRICITY": 0.00012962, "INCLINATION": 98.082, "RA_OF_ASC_NODE": 35.0898, "ARG_OF_PERICENTER": 258.6198, "MEAN_ANOMALY": 101.4866, "EPHEMERIS_TYPE": 0, "CLASSIFICATION_TYPE": "U", "NORAD_CAT_ID": 43259, "ELEMENT_SET_NO": 999, "REV_AT_EPOCH": 41379, "BSTAR": 0.00021870579, "MEAN_MOTION_DOT": 1.47e-05, "MEAN_MOTION_DDOT": 0}, "tle": {"line1": "1 43259U 18031A   25337.30469844  .00001470  00000+0  21871-3 0  9997", "line2": "2 43259  98.0820  35.0898 0001296 258.6198 101.4866 14.76447996413799"}}, "geometry": {"type": "Point", "coordinates": [0.13775871605063766, 76.18692795458085]}}, {"type": "Feature", "properties": {"norad_id": 43260, "name": "GAOFEN-1 03", "group": "resource", "lat": -15.16280955888372, "lon": -146.8849216041665, "alt_km": 647.2157487514041, "timestamp": "2025-12-03T15:48:02.759251+00:00", "meta": {"OBJECT_NAME": "GAOFEN-1 03", "OBJECT_ID": "2018-031B", "EPOCH": "2025-12-03T08:24:47.196000", "MEAN_MOTION": 14.7640459, "ECCENTRICITY": 0.00026393, "INCLINATION": 98.0812, "RA_OF_ASC_NODE": 35.0138, "ARG_OF_PERICENTER": 358.8613, "MEAN_ANOMALY": 1.259, "EPHEMERIS_TYPE": 0, "CLASSIFICATION_TYPE": "U", "NORAD_CAT_ID": 43260, "ELEMENT_SET_NO": 999, "REV_AT_EPOCH": 41379, "BSTAR": 0.00021735318, "MEAN_MOTION_DOT": 1.459e-05, "MEAN_MOTION_DDOT": 0}, "tle": {"line1": "1 43260U 18031B   25337.35054625  .00001459  00000+0  21735-3 0  9997", "line2": "2 43260  98.0812  35.0138 0002639 358.8613   1.2590 14.76404590413790"}}, "geometry": {"type": "Point", "coordinates": [-146.8849216041665, -15.16280955888372]}}]}